[{"OBJECT_NAME":"ONEWEB-0597","OBJECT_ID":"2022-166X","EPOCH":"2026-03-09T21:33:23.578848","MEAN_MOTION":13.21826112,"ECCENTRICITY":0.00014734,"INCLINATION":87.9163,"RA_OF_ASC_NODE":263.7884,"ARG_OF_PERICENTER":89.8903,"MEAN_ANOMALY":270.24,"EPHEMERIS_TYPE":0,"CLASSIFICATION_TYPE":"U","NORAD_CAT_ID":54663,"ELEMENT_SET_NO":999,"REV_AT_EPOCH":15842,"BSTAR":-0.0002115497,"MEAN_MOTION_DOT":-7.4e-7,"MEAN_MOTION_DDOT":0},{"OBJECT_NAME":"COSMOS 839 DEB","OBJECT_ID":"1976-067BY","EPOCH":"2026-03-09T08:19:55.197696","MEAN_MOTION":12.42135431,"ECCENTRICITY":0.06635913,"INCLINATION":66.0399,"RA_OF_ASC_NODE":44.9393,"ARG_OF_PERICENTER":120.8396,"MEAN_ANOMALY":24.1444,"EPHEMERIS_TYPE":0,"CLASSIFICATION_TYPE":"U","NORAD_CAT_ID":21128,"ELEMENT_SET_NO":999,"REV_AT_EPOCH":60419,"BSTAR":0.001528492,"MEAN_MOTION_DOT":4.01e-6,"MEAN_MOTION_DDOT":0}]
